[{"OBJECT_NAME":"PALISADE","OBJECT_ID":"2019-069A","EPOCH":"2026-03-09T16:08:09.565152","MEAN_MOTION":13.11903827,"ECCENTRICITY":0.0008751,"INCLINATION":87.8869,"RA_OF_ASC_NODE":299.6164,"ARG_OF_PERICENTER":344.4129,"MEAN_ANOMALY":15.6728,"EPHEMERIS_TYPE":0,"CLASSIFICATION_TYPE":"U","NORAD_CAT_ID":44634,"ELEMENT_SET_NO":999,"REV_AT_EPOCH":30606,"BSTAR":-0.0010924646,"MEAN_MOTION_DOT":-3.77e-6,"MEAN_MOTION_DDOT":0},{"OBJECT_NAME":"ONEWEB-0415","OBJECT_ID":"2022-012C","EPOCH":"2026-03-09T23:22:33.866112","MEAN_MOTION":13.10370249,"ECCENTRICITY":0.00021334,"INCLINATION":87.8769,"RA_OF_ASC_NODE":56.0185,"ARG_OF_PERICENTER":86.5099,"MEAN_ANOMALY":273.6272,"EPHEMERIS_TYPE":0,"CLASSIFICATION_TYPE":"U","NORAD_CAT_ID":51624,"ELEMENT_SET_NO":999,"REV_AT_EPOCH":19629,"BSTAR":-0.00090798506,"MEAN_MOTION_DOT":-3.04e-6,"MEAN_MOTION_DDOT":0}]
